CTC1_L_00125001-01
1 70827U 26047JQ  26037.47802083  .00000000  00000+0  00000-0 0  9992
2 70827  75.0000   0.0000 0000000   0.0000   0.0000 14.24551582    16
CTC1_L_00125001-02
1 70828U 23474IA  26037.47802083  .00000000  00000+0  00000-0 0  9994
2 70828  75.0000   0.0000 0000000   0.0000  90.0000 14.24551582    16
CTC1_L_00125001-03
1 70829U 23605BI  26037.47802083  .00000000  00000+0  00000-0 0  9991
2 70829  75.0000   0.0000 0000000   0.0000 180.0000 14.24551582    17
CTC1_L_00125001-04
1 70830U 22005AX  26037.47802083  .00000000  00000+0  00000-0 0  9996
2 70830  75.0000   0.0000 0000000   0.0000 270.0000 14.24551582    19
CTC1_L_00125002-01
1 70831U 24378SG  26037.47802083  .00000000  00000+0  00000-0 0  9992
2 70831  75.0000  12.0000 0000000   0.0000  12.0000 14.24551582    17
CTC1_L_00125002-02
1 70832U 22986YY  26037.47802083  .00000000  00000+0  00000-0 0  9996
2 70832  75.0000  12.0000 0000000   0.0000 102.0000 14.24551582    18
CTC1_L_00125002-03
1 70833U 22219N   26037.47802083  .00000000  00000+0  00000-0 0  9996
2 70833  75.0000  12.0000 0000000   0.0000 192.0000 14.24551582    18
CTC1_L_00125002-04
1 70834U 26707F   26037.47802083  .00000000  00000+0  00000-0 0  9993
2 70834  75.0000  12.0000 0000000   0.0000 282.0000 14.24551582    19
CTC1_L_00125003-01
1 70835U 26600SF  26037.47802083  .00000000  00000+0  00000-0 0  9996
2 70835  75.0000  24.0000 0000000   0.0000  24.0000 14.24551582    17
CTC1_L_00125003-02
1 70836U 25773GS  26037.47802083  .00000000  00000+0  00000-0 0  9997
2 70836  75.0000  24.0000 0000000   0.0000 114.0000 14.24551582    18
CTC1_L_00125003-03
1 70837U 24910UY  26037.47802083  .00000000  00000+0  00000-0 0  9990
2 70837  75.0000  24.0000 0000000   0.0000 204.0000 14.24551582    19
CTC1_L_00125003-04
1 70838U 23455VV  26037.47802083  .00000000  00000+0  00000-0 0  9994
2 70838  75.0000  24.0000 0000000   0.0000 294.0000 14.24551582    19
CTC1_L_00125004-01
1 70839U 23028VZ  26037.47802083  .00000000  00000+0  00000-0 0  9991
2 70839  75.0000  36.0000 0000000   0.0000  36.0000 14.24551582    17
CTC1_L_00125004-02
1 70840U 24119LP  26037.47802083  .00000000  00000+0  00000-0 0  9995
2 70840  75.0000  36.0000 0000000   0.0000 126.0000 14.24551582    19
CTC1_L_00125004-03
1 70841U 25149ZG  26037.47802083  .00000000  00000+0  00000-0 0  9990
2 70841  75.0000  36.0000 0000000   0.0000 216.0000 14.24551582    10
CTC1_L_00125004-04
1 70842U 23693HV  26037.47802083  .00000000  00000+0  00000-0 0  9993
2 70842  75.0000  36.0000 0000000   0.0000 306.0000 14.24551582    11
CTC1_L_00125005-01
1 70843U 25554QP  26037.47802083  .00000000  00000+0  00000-0 0  9992
2 70843  75.0000  48.0000 0000000   0.0000  48.0000 14.24551582    18
CTC1_L_00125005-02
1 70844U 23172PS  26037.47802083  .00000000  00000+0  00000-0 0  9997
2 70844  75.0000  48.0000 0000000   0.0000 138.0000 14.24551582    19
CTC1_L_00125005-03
1 70845U 26903GR  26037.47802083  .00000000  00000+0  00000-0 0  9993
2 70845  75.0000  48.0000 0000000   0.0000 228.0000 14.24551582    10
CTC1_L_00125005-04
1 70846U 23750UL  26037.47802083  .00000000  00000+0  00000-0 0  9991
2 70846  75.0000  48.0000 0000000   0.0000 318.0000 14.24551582    11
CTC1_L_00125006-01
1 70847U 25074WR  26037.47802083  .00000000  00000+0  00000-0 0  9993
2 70847  75.0000  60.0000 0000000   0.0000  60.0000 14.24551582    10
CTC1_L_00125006-02
1 70848U 23226GQ  26037.47802083  .00000000  00000+0  00000-0 0  9991
2 70848  75.0000  60.0000 0000000   0.0000 150.0000 14.24551582    11
CTC1_L_00125006-03
1 70849U 24244JC  26037.47802083  .00000000  00000+0  00000-0 0  9993
2 70849  75.0000  60.0000 0000000   0.0000 240.0000 14.24551582    12
CTC1_L_00125006-04
1 70850U 26473RC  26037.47802083  .00000000  00000+0  00000-0 0  9991
2 70850  75.0000  60.0000 0000000   0.0000 330.0000 14.24551582    14
CTC1_L_00125007-01
1 70851U 25328DD  26037.47802083  .00000000  00000+0  00000-0 0  9990
2 70851  75.0000  72.0000 0000000   0.0000  72.0000 14.24551582    11
CTC1_L_00125007-02
1 70852U 22259TJ  26037.47802083  .00000000  00000+0  00000-0 0  9991
2 70852  75.0000  72.0000 0000000   0.0000 162.0000 14.24551582    12
CTC1_L_00125007-03
1 70853U 25988QE  26037.47802083  .00000000  00000+0  00000-0 0  9994
2 70853  75.0000  72.0000 0000000   0.0000 252.0000 14.24551582    13
CTC1_L_00125007-04
1 70854U 25904XW  26037.47802083  .00000000  00000+0  00000-0 0  9993
2 70854  75.0000  72.0000 0000000   0.0000 342.0000 14.24551582    14
CTC1_L_00125008-01
1 70855U 23294BH  26037.47802083  .00000000  00000+0  00000-0 0  9994
2 70855  75.0000  84.0000 0000000   0.0000  84.0000 14.24551582    11
CTC1_L_00125008-02
1 70856U 25706YE  26037.47802083  .00000000  00000+0  00000-0 0  9995
2 70856  75.0000  84.0000 0000000   0.0000 174.0000 14.24551582    12
CTC1_L_00125008-03
1 70857U 26968AG  26037.47802083  .00000000  00000+0  00000-0 0  9997
2 70857  75.0000  84.0000 0000000   0.0000 264.0000 14.24551582    13
CTC1_L_00125008-04
1 70858U 22536GW  26037.47802083  .00000000  00000+0  00000-0 0  9995
2 70858  75.0000  84.0000 0000000   0.0000 354.0000 14.24551582    14
CTC1_L_00125009-01
1 70859U 26806AR  26037.47802083  .00000000  00000+0  00000-0 0  9990
2 70859  75.0000  96.0000 0000000   0.0000  96.0000 14.24551582    11
CTC1_L_00125009-02
1 70860U 24717YZ  26037.47802083  .00000000  00000+0  00000-0 0  9991
2 70860  75.0000  96.0000 0000000   0.0000 186.0000 14.24551582    13
CTC1_L_00125009-03
1 70861U 22755NM  26037.47802083  .00000000  00000+0  00000-0 0  9992
2 70861  75.0000  96.0000 0000000   0.0000 276.0000 14.24551582    14
CTC1_L_00125009-04
1 70862U 22273OS  26037.47802083  .00000000  00000+0  00000-0 0  9998
2 70862  75.0000  96.0000 0000000   0.0000   6.0000 14.24551582    16
CTC1_L_00125010-01
1 70863U 26758EW  26037.47802083  .00000000  00000+0  00000-0 0  9991
2 70863  75.0000 108.0000 0000000   0.0000 108.0000 14.24551582    14
CTC1_L_00125010-02
1 70864U 26405PW  26037.47802083  .00000000  00000+0  00000-0 0  9991
2 70864  75.0000 108.0000 0000000   0.0000 198.0000 14.24551582    14
CTC1_L_00125010-03
1 70865U 25732VJ  26037.47802083  .00000000  00000+0  00000-0 0  9994
2 70865  75.0000 108.0000 0000000   0.0000 288.0000 14.24551582    15
CTC1_L_00125010-04
1 70866U 24879BN  26037.47802083  .00000000  00000+0  00000-0 0  9996
2 70866  75.0000 108.0000 0000000   0.0000  18.0000 14.24551582    17
CTC1_L_00125011-01
1 70867U 26009IC  26037.47802083  .00000000  00000+0  00000-0 0  9994
2 70867  75.0000 120.0000 0000000   0.0000 120.0000 14.24551582    16
CTC1_L_00125011-02
1 70868U 25860EZ  26037.47802083  .00000000  00000+0  00000-0 0  9999
2 70868  75.0000 120.0000 0000000   0.0000 210.0000 14.24551582    17
CTC1_L_00125011-03
1 70869U 25487DC  26037.47802083  .00000000  00000+0  00000-0 0  9995
2 70869  75.0000 120.0000 0000000   0.0000 300.0000 14.24551582    18
CTC1_L_00125011-04
1 70870U 24464D   26037.47802083  .00000000  00000+0  00000-0 0  9991
2 70870  75.0000 120.0000 0000000   0.0000  30.0000 14.24551582    10
CTC1_L_00125012-01
1 70871U 24580GB  26037.47802083  .00000000  00000+0  00000-0 0  9991
2 70871  75.0000 132.0000 0000000   0.0000 132.0000 14.24551582    17
CTC1_L_00125012-02
1 70872U 24192LI  26037.47802083  .00000000  00000+0  00000-0 0  9991
2 70872  75.0000 132.0000 0000000   0.0000 222.0000 14.24551582    18
CTC1_L_00125012-03
1 70873U 23061JJ  26037.47802083  .00000000  00000+0  00000-0 0  9996
2 70873  75.0000 132.0000 0000000   0.0000 312.0000 14.24551582    19
CTC1_L_00125012-04
1 70874U 23723WI  26037.47802083  .00000000  00000+0  00000-0 0  9992
2 70874  75.0000 132.0000 0000000   0.0000  42.0000 14.24551582    10
CTC1_L_00125013-01
1 70875U 26325AD  26037.47802083  .00000000  00000+0  00000-0 0  9994
2 70875  75.0000 144.0000 0000000   0.0000 144.0000 14.24551582    17
CTC1_L_00125013-02
1 70876U 25624CN  26037.47802083  .00000000  00000+0  00000-0 0  9996
2 70876  75.0000 144.0000 0000000   0.0000 234.0000 14.24551582    18
CTC1_L_00125013-03
1 70877U 24515FP  26037.47802083  .00000000  00000+0  00000-0 0  9995
2 70877  75.0000 144.0000 0000000   0.0000 324.0000 14.24551582    19
CTC1_L_00125013-04
1 70878U 22546RS  26037.47802083  .00000000  00000+0  00000-0 0  9998
2 70878  75.0000 144.0000 0000000   0.0000  54.0000 14.24551582    10
CTC1_L_00125014-01
1 70879U 26094OC  26037.47802083  .00000000  00000+0  00000-0 0  9991
2 70879  75.0000 156.0000 0000000   0.0000 156.0000 14.24551582    17
CTC1_L_00125014-02
1 70880U 25619ZE  26037.47802083  .00000000  00000+0  00000-0 0  9995
2 70880  75.0000 156.0000 0000000   0.0000 246.0000 14.24551582    19
CTC1_L_00125014-03
1 70881U 23173YF  26037.47802083  .00000000  00000+0  00000-0 0  9999
2 70881  75.0000 156.0000 0000000   0.0000 336.0000 14.24551582    10
CTC1_L_00125014-04
1 70882U 25563EF  26037.47802083  .00000000  00000+0  00000-0 0  9995
2 70882  75.0000 156.0000 0000000   0.0000  66.0000 14.24551582    11
CTC1_L_00125015-01
1 70883U 25074LE  26037.47802083  .00000000  00000+0  00000-0 0  9993
2 70883  75.0000 168.0000 0000000   0.0000 168.0000 14.24551582    18
CTC1_L_00125015-02
1 70884U 25120EZ  26037.47802083  .00000000  00000+0  00000-0 0  9996
2 70884  75.0000 168.0000 0000000   0.0000 258.0000 14.24551582    19
CTC1_L_00125015-03
1 70885U 23607WW  26037.47802083  .00000000  00000+0  00000-0 0  9995
2 70885  75.0000 168.0000 0000000   0.0000 348.0000 14.24551582    10
CTC1_L_00125015-04
1 70886U 24553BA  26037.47802083  .00000000  00000+0  00000-0 0  9997
2 70886  75.0000 168.0000 0000000   0.0000  78.0000 14.24551582    11
CTC1_L_00125016-01
1 70887U 22696BZ  26037.47802083  .00000000  00000+0  00000-0 0  9994
2 70887  75.0000 180.0000 0000000   0.0000 180.0000 14.24551582    10
CTC1_L_00125016-02
1 70888U 26765GG  26037.47802083  .00000000  00000+0  00000-0 0  9996
2 70888  75.0000 180.0000 0000000   0.0000 270.0000 14.24551582    11
